{
  "fetched_at": "2026-05-13T14:03:55.643112+00:00",
  "satellites": {
    "57166": {
      "name": "Meteor M2-3",
      "tle_line1": "1 57166U 23091A   26133.31859873 -.00000021  00000+0  98850-5 0  9997",
      "tle_line2": "2 57166  98.6109 189.0057 0002757 271.9216  88.1647 14.24043620149553"
    },
    "59051": {
      "name": "Meteor M2-4",
      "tle_line1": "1 59051U 24039A   26133.29374138 -.00000005  00000+0  17350-4 0  9995",
      "tle_line2": "2 59051  98.6992  93.0350 0005910 272.0267  88.0234 14.22425871114306"
    },
    "38771": {
      "name": "MetOp-B",
      "tle_line1": "1 38771U 12049A   26133.20500858  .00000064  00000+0  48973-4 0  9999",
      "tle_line2": "2 38771  98.6527 185.3976 0003525  91.8201 268.3380 14.21422665708299"
    },
    "43689": {
      "name": "MetOp-C",
      "tle_line1": "1 43689U 18087A   26133.15577112  .00000052  00000+0  43797-4 0  9998",
      "tle_line2": "2 43689  98.6662 193.3956 0000263 114.2140 245.9065 14.21502140389853"
    },
    "60543": {
      "name": "Arctic Weather Satellite",
      "tle_line1": "1 60543U 24149CD  26133.16093380  .00000478  00000+0  55420-4 0  9991",
      "tle_line2": "2 60543  97.6807 204.6250 0001636 180.2476 179.8741 14.89795499 94083"
    }
  }
}